RAPIDEYE 2              
1 33312U 08040A   19302.51894414 -.00000402  00000-0 -38591-4 0  9993
2 33312  97.7289   7.4471 0011719  24.7922 335.3861 14.87264138603286
RAPIDEYE 5              
1 33313U 08040B   19302.47588854  .00000634  00000-0  76158-4 0  9993
2 33313  97.7344   6.3635 0021799 295.7243  64.1724 14.87253267603224
RAPIDEYE 1              
1 33314U 08040C   19301.85893761 -.00011723  00000-0 -12915-2 0  9993
2 33314  97.7400   6.6870 0021825  62.5910 297.7483 14.87270362603178
RAPIDEYE 3              
1 33315U 08040D   19302.49888272  .00000074  00000-0  14109-4 0  9990
2 33315  97.7350   6.2774 0015612 353.6468   6.4553 14.87279751603232
RAPIDEYE 4              
1 33316U 08040E   19302.41994884  .00001421  00000-0  16328-3 0  9991
2 33316  97.7394   6.1307 0015779 313.1862  46.8035 14.87275849603210
SKYSAT-1                
1 39418U 13066C   19302.23307781  .00000582  00000-0  52932-4 0  9997
2 39418  97.6431  21.5736 0019916 258.3330 101.5658 14.98871063324496
FLOCK 1C-10             
1 40023U 14033P   19301.85877367  .00000775  00000-0  86516-4 0  9994
2 40023  97.9241 224.7815 0012647 351.8508   8.2501 14.89851746291058
FLOCK 1C-7              
1 40026U 14033S   19302.38362486  .00000670  00000-0  74239-4 0  9990
2 40026  97.9312 227.4450 0010884 345.0462  15.0432 14.90609414291234
FLOCK 1C-1              
1 40027U 14033T   19301.72594764  .00000811  00000-0  90199-4 0  9994
2 40027  97.9272 225.1885 0012527 349.3636  10.7315 14.89905116291040
FLOCK 1C-2              
1 40029U 14033V   19301.80297746  .00000561  00000-0  64226-4 0  9999
2 40029  97.9258 225.0505 0013460 345.9935  14.0907 14.89925642291056
FLOCK 1C-4              
1 40031U 14033X   19302.37518066  .00000439  00000-0  52044-4 0  9995
2 40031  97.9265 225.2867 0013968 341.1263  18.9434 14.89523879291105
FLOCK 1C-11             
1 40033U 14033Z   19302.35323035  .00000515  00000-0  58022-4 0  9992
2 40033  97.9363 229.1146 0011568 331.3791  28.6790 14.90934804291312
FLOCK 1C-9              
1 40035U 14033AB  19302.36939891  .00000702  00000-0  78656-4 0  9991
2 40035  97.9309 226.4557 0011337 336.5240  23.5458 14.89994198291146
FLOCK 1C-6              
1 40036U 14033AC  19301.85949265  .00000781  00000-0  86636-4 0  9995
2 40036  97.9332 226.4596 0011578 338.9375  21.1364 14.90098781290580
FLOCK 1C-5              
1 40038U 14033AE  19302.35359710  .00000781  00000-0  86722-4 0  9999
2 40038  97.9303 226.4945 0013648 335.4529  24.6037 14.90065490291151
FLOCK 1C-8              
1 40040U 14033AG  19302.36765379  .00001010  00000-0  10536-3 0  9990
2 40040  97.9485 232.2558 0011836 314.7525  45.2730 14.91980714291440
FLOCK 1C-3              
1 40041U 14033AH  19301.83355853  .00000664  00000-0  75290-4 0  9997
2 40041  97.9278 225.2422 0012604 336.8765  23.1883 14.89712530290515
SKYSAT-2                
1 40072U 14037D   19301.92411964  .00000112  00000-0  21937-4 0  9998
2 40072  98.4432 102.6093 0006981 150.8640 209.2961 14.81217382286747
SKYSAT-C1               
1 41601U 16040C   19302.42339212  .00000793  00000-0  36219-4 0  9998
2 41601  97.3843  19.1480 0002414  79.8687 342.4306 15.23451757186273
FLOCK 2P-6              
1 41606U 16040H   19301.72948758  .00001849  00000-0  75079-4 0  9996
2 41606  97.3565   4.5403 0008429 276.1599  83.8679 15.25819124186264
FLOCK 2P-11             
1 41608U 16040K   19301.85871564  .00004374  00000-0  16729-3 0  9994
2 41608  97.3537   4.9713 0008045 273.3178  86.7141 15.27086263186256
FLOCK 2P-2              
1 41609U 16040L   19301.83604322  .00003890  00000-0  15452-3 0  9993
2 41609  97.3566   4.5511 0008257 275.7882  84.2415 15.25887277186196
FLOCK 2P-9              
1 41610U 16040M   19301.85403107  .00001852  00000-0  75386-4 0  9994
2 41610  97.3566   4.4916 0008752 274.8993  85.1246 15.25732182186072
FLOCK 2P-4              
1 41611U 16040N   19301.86072586  .00003531  00000-0  13749-3 0  9999
2 41611  97.3588   5.3391 0008231 285.1995  74.8333 15.26618199186268
FLOCK 2P-10             
1 41612U 16040P   19302.22972734  .00001997  00000-0  80927-4 0  9992
2 41612  97.3602   5.5761 0008497 285.7503  74.2798 15.25793733186305
FLOCK 2P-8              
1 41613U 16040Q   19302.14286649  .00001751  00000-0  71493-4 0  9993
2 41613  97.3596   5.3205 0008768 284.6038  75.4228 15.25709767186283
FLOCK 2P-12             
1 41614U 16040R   19302.16763072  .00001811  00000-0  73842-4 0  9993
2 41614  97.3608   5.6063 0008562 286.0962  73.9333 15.25707931186299
FLOCK 2P-7              
1 41615U 16040S   19301.84153635  .00004316  00000-0  16584-3 0  9998
2 41615  97.3559   5.2609 0008119 285.7906  74.2437 15.26940141186268
FLOCK 2P-5              
1 41616U 16040T   19302.17587341  .00003352  00000-0  13363-3 0  9992
2 41616  97.3606   5.5949 0008315 284.3643  75.6672 15.25861871186271
FLOCK 2P-1              
1 41617U 16040U   19302.41564805  .00003140  00000-0  12277-3 0  9998
2 41617  97.3590   6.0133 0008030 283.8986  76.1359 15.26562743186346
FLOCK 2P-3              
1 41618U 16040V   19301.86394528  .00001774  00000-0  72376-4 0  9998
2 41618  97.3610   5.2634 0008324 286.0898  73.9423 15.25719445186248
SKYSAT-C4               
1 41771U 16058B   19302.17217993  .00000700  00000-0  32255-4 0  9992
2 41771  97.3886  11.3825 0001759  80.4474 279.6962 15.23509543173179
SKYSAT-C5               
1 41772U 16058C   19302.47267941  .00000770  00000-0  35190-4 0  9992
2 41772  97.3877  11.1961 0001564  67.3911  28.1495 15.23490745173219
SKYSAT-C2               
1 41773U 16058D   19301.75673939  .00000736  00000-0  33741-4 0  9993
2 41773  97.3909  11.1590 0001570  97.8696 262.2719 15.23516838173110
SKYSAT-C3               
1 41774U 16058E   19302.42403420  .00000699  00000-0  32242-4 0  9998
2 41774  97.3918  11.8454 0001650  87.2799 272.8627 15.23470037173219
FLOCK 3P-20             
1 41950U 17008C   19302.13572786  .00001427  00000-0  58830-4 0  9991
2 41950  97.3932   7.6341 0009959  43.9285 316.2743 15.25679001150152
FLOCK 3P-8              
1 41951U 17008D   19302.13761472  .00001672  00000-0  68414-4 0  9995
2 41951  97.3934   7.6680 0009071  44.7445 315.4524 15.25704761150142
FLOCK 3P-51             
1 41952U 17008E   19302.10637403  .00002151  00000-0  87163-4 0  9994
2 41952  97.3941   7.7911 0009298  60.4417 299.7747 15.25701372150140
FLOCK 3P-37             
1 41953U 17008F   19301.85376819  .00003450  00000-0  13092-3 0  9999
2 41953  97.3954   8.9007 0008307  63.1465 297.0623 15.27498613150201
FLOCK 3P-19             
1 41955U 17008H   19302.14618198  .00003751  00000-0  14923-3 0  9991
2 41955  97.3928   7.5909 0009511  44.3663 315.8336 15.25851087150070
FLOCK 3P-24             
1 41956U 17008J   19302.16344021  .00004316  00000-0  16175-3 0  9994
2 41956  97.3920   8.6970 0008736  36.9387 323.2453 15.27761754150235
FLOCK 3P-18             
1 41957U 17008K   19302.17980676  .00004129  00000-0  15679-3 0  9998
2 41957  97.3903   8.3295 0008987  40.5449 319.6458 15.27349303150058
FLOCK 3P-22             
1 41958U 17008L   19301.89132610  .00004065  00000-0  15594-3 0  9999
2 41958  97.3944   7.8413 0008921  42.2352 317.9573 15.27022144149979
FLOCK 3P-21             
1 41959U 17008M   19302.42416330  .00003069  00000-0  12008-3 0  9994
2 41959  97.3944   8.2618 0009111  43.6131 316.5826 15.26552366150054
FLOCK 3P-28             
1 41960U 17008N   19301.89665931  .00003107  00000-0  12280-3 0  9994
2 41960  97.3934   7.5442 0009015  43.3157 316.8789 15.26211673150043
FLOCK 3P-26             
1 41961U 17008P   19302.13623218  .00003451  00000-0  13377-3 0  9995
2 41961  97.3934   8.0990 0008892  41.1547 319.0361 15.26780843150028
FLOCK 3P-17             
1 41962U 17008Q   19301.89031959  .00003327  00000-0  12812-3 0  9998
2 41962  97.3936   8.1080 0008665  44.6684 315.5252 15.27033253149957
FLOCK 3P-27             
1 41963U 17008R   19301.84173045  .00003207  00000-0  12486-3 0  9991
2 41963  97.3938   7.7483 0009073  42.7578 317.4365 15.26686404149976
FLOCK 3P-25             
1 41964U 17008S   19301.84230133  .00004025  00000-0  15547-3 0  9994
2 41964  97.3920   7.6825 0009139  42.0016 318.1922 15.26800335149956
FLOCK 3P-4              
1 41965U 17008T   19302.40466460  .00001680  00000-0  68696-4 0  9990
2 41965  97.3934   7.9205 0009205  43.3416 316.8545 15.25709450150110
FLOCK 3P-2              
1 41966U 17008U   19302.14537889  .00002173  00000-0  88072-4 0  9994
2 41966  97.3940   7.7032 0008929  42.7548 317.4383 15.25697987149997
FLOCK 3P-1              
1 41967U 17008V   19302.15348079  .00004056  00000-0  15537-3 0  9994
2 41967  97.3933   8.1188 0008735  42.9281 317.2638 15.27073875150021
FLOCK 3P-3              
1 41968U 17008W   19301.81214842  .00003347  00000-0  13343-3 0  9992
2 41968  97.3938   7.3294 0009030  44.4048 315.7913 15.25864055150028
FLOCK 3P-6              
1 41969U 17008X   19302.14029941  .00001563  00000-0  64121-4 0  9993
2 41969  97.3938   7.7006 0008957  43.3826 316.8116 15.25704102149989
FLOCK 3P-7              
1 41970U 17008Y   19302.43483665  .00003918  00000-0  14878-3 0  9993
2 41970  97.3932   8.8020 0008549  42.5466 317.6434 15.27389083150085
FLOCK 3P-5              
1 41971U 17008Z   19302.18335288  .00003365  00000-0  13084-3 0  9997
2 41971  97.3937   8.1208 0008828  45.2923 314.9033 15.26697499149951
FLOCK 3P-12             
1 41972U 17008AA  19302.13391408  .00002028  00000-0  82341-4 0  9997
2 41972  97.3939   7.7254 0008926  46.7250 313.4731 15.25710659150075
FLOCK 3P-9              
1 41973U 17008AB  19302.13722062  .00003708  00000-0  14767-3 0  9994
2 41973  97.3941   7.7424 0008868  45.3193 314.8766 15.25831894150072
FLOCK 3P-10             
1 41974U 17008AC  19301.86149349  .00003267  00000-0  12804-3 0  9995
2 41974  97.3950   7.8275 0008318  45.6158 314.5761 15.26454515149940
